STARLINK-35510          
1 66397U 25257T   25335.50006943 -.00054014  00000+0 -96951-3 0  9995
2 66397  53.1589 317.5370 0001076  82.7699  64.8101 15.49318247  4698
STARLINK-35642          
1 66398U 25257U   25335.50006943 -.00035718  00000+0 -63701-3 0  9993
2 66398  53.1589 317.5324 0001464  86.7743  62.7210 15.49310641  4691
STARLINK-35657          
1 66399U 25257V   25335.50006943 -.00043681  00000+0 -78154-3 0  9990
2 66399  53.1589 317.5287 0001547  88.0616  63.3503 15.49314143  4699
STARLINK-35667          
1 66400U 25257W   25335.50006943 -.00075586  00000+0 -13608-2 0  9994
2 66400  53.1588 317.5204 0001654  82.9967  72.1526 15.49376846  4692
STARLINK-35668          
1 66401U 25257X   25335.50006943 -.00037177  00000+0 -66348-3 0  9999
2 66401  53.1589 317.5164 0001468  88.4154  68.7462 15.49311064  4692
STARLINK-35644          
1 66402U 25257Y   25335.50006943 -.00053376  00000+0 -95786-3 0  9997
2 66402  53.1589 317.5241 0001459  87.7994  65.5289 15.49318207  4691
STARLINK-35602          
1 66403U 25257Z   25335.50006943 -.00030777  00000+0 -54749-3 0  9992
2 66403  53.1588 317.5126 0001644  89.6538  69.4259 15.49307150  4699
STARLINK-35691          
1 66404U 25257AA  25335.50006943 -.00040277  00000+0 -71971-3 0  9995
2 66404  53.1588 317.5080 0001519  87.5688  73.4236 15.49313444  4696
STARLINK-35683          
1 66405U 25257AB  25335.50006943 -.00046177  00000+0 -82689-3 0  9999
2 66405  53.1587 317.5037 0001467  88.0303  74.8798 15.49315268  4537
STARLINK-34840          
1 66406U 25257AC  25335.25002315 -.00075549  00000+0 -13625-2 0  9999
2 66406  53.1592 318.6878 0001736  88.6956 124.5339 15.49328208  4596
STARLINK-35686          
1 66407U 25257AD  25335.50006943 -.00023066  00000+0 -40794-3 0  9994
2 66407  53.1587 317.5000 0001673  87.8535  76.9775 15.49303287  4695
STARLINK-35679          
1 66408U 25257AE  25335.50006943 -.00039941  00000+0 -71363-3 0  9990
2 66408  53.1588 317.4972 0001414  88.5796  78.1665 15.49312795  4690
