CCSDS_OMM_VERS = 2.0
CREATION_DATE  = 
ORIGINATOR     = 

OBJECT_NAME    = STARLINK-35510
OBJECT_ID      = 2025-257T
CENTER_NAME    = EARTH
REF_FRAME      = TEME
TIME_SYSTEM    = UTC
MEAN_ELEMENT_THEORY = SGP/SGP4

EPOCH          = 2025-12-01T12:00:05.998752
MEAN_MOTION    = 15.49318247
ECCENTRICITY   = .0001076
INCLINATION    = 53.1589
RA_OF_ASC_NODE = 317.5370
ARG_OF_PERICENTER = 82.7699
MEAN_ANOMALY   = 64.8101

EPHEMERIS_TYPE = 0
CLASSIFICATION_TYPE = U
NORAD_CAT_ID   = 66397
ELEMENT_SET_NO = 999
REV_AT_EPOCH   = 469
BSTAR          = -.96951E-3
MEAN_MOTION_DOT = -.54014E-3
MEAN_MOTION_DDOT = 0

CCSDS_OMM_VERS = 2.0
CREATION_DATE  = 
ORIGINATOR     = 

OBJECT_NAME    = STARLINK-35642
OBJECT_ID      = 2025-257U
CENTER_NAME    = EARTH
REF_FRAME      = TEME
TIME_SYSTEM    = UTC
MEAN_ELEMENT_THEORY = SGP/SGP4

EPOCH          = 2025-12-01T12:00:05.998752
MEAN_MOTION    = 15.49310641
ECCENTRICITY   = .0001464
INCLINATION    = 53.1589
RA_OF_ASC_NODE = 317.5324
ARG_OF_PERICENTER = 86.7743
MEAN_ANOMALY   = 62.7210

EPHEMERIS_TYPE = 0
CLASSIFICATION_TYPE = U
NORAD_CAT_ID   = 66398
ELEMENT_SET_NO = 999
REV_AT_EPOCH   = 469
BSTAR          = -.63701E-3
MEAN_MOTION_DOT = -.35718E-3
MEAN_MOTION_DDOT = 0

CCSDS_OMM_VERS = 2.0
CREATION_DATE  = 
ORIGINATOR     = 

OBJECT_NAME    = STARLINK-35657
OBJECT_ID      = 2025-257V
CENTER_NAME    = EARTH
REF_FRAME      = TEME
TIME_SYSTEM    = UTC
MEAN_ELEMENT_THEORY = SGP/SGP4

EPOCH          = 2025-12-01T12:00:05.998752
MEAN_MOTION    = 15.49314143
ECCENTRICITY   = .0001547
INCLINATION    = 53.1589
RA_OF_ASC_NODE = 317.5287
ARG_OF_PERICENTER = 88.0616
MEAN_ANOMALY   = 63.3503

EPHEMERIS_TYPE = 0
CLASSIFICATION_TYPE = U
NORAD_CAT_ID   = 66399
ELEMENT_SET_NO = 999
REV_AT_EPOCH   = 469
BSTAR          = -.78154E-3
MEAN_MOTION_DOT = -.43681E-3
MEAN_MOTION_DDOT = 0

CCSDS_OMM_VERS = 2.0
CREATION_DATE  = 
ORIGINATOR     = 

OBJECT_NAME    = STARLINK-35667
OBJECT_ID      = 2025-257W
CENTER_NAME    = EARTH
REF_FRAME      = TEME
TIME_SYSTEM    = UTC
MEAN_ELEMENT_THEORY = SGP/SGP4

EPOCH          = 2025-12-01T12:00:05.998752
MEAN_MOTION    = 15.49376846
ECCENTRICITY   = .0001654
INCLINATION    = 53.1588
RA_OF_ASC_NODE = 317.5204
ARG_OF_PERICENTER = 82.9967
MEAN_ANOMALY   = 72.1526

EPHEMERIS_TYPE = 0
CLASSIFICATION_TYPE = U
NORAD_CAT_ID   = 66400
ELEMENT_SET_NO = 999
REV_AT_EPOCH   = 469
BSTAR          = -.13608E-2
MEAN_MOTION_DOT = -.75586E-3
MEAN_MOTION_DDOT = 0

CCSDS_OMM_VERS = 2.0
CREATION_DATE  = 
ORIGINATOR     = 

OBJECT_NAME    = STARLINK-35668
OBJECT_ID      = 2025-257X
CENTER_NAME    = EARTH
REF_FRAME      = TEME
TIME_SYSTEM    = UTC
MEAN_ELEMENT_THEORY = SGP/SGP4

EPOCH          = 2025-12-01T12:00:05.998752
MEAN_MOTION    = 15.49311064
ECCENTRICITY   = .0001468
INCLINATION    = 53.1589
RA_OF_ASC_NODE = 317.5164
ARG_OF_PERICENTER = 88.4154
MEAN_ANOMALY   = 68.7462

EPHEMERIS_TYPE = 0
CLASSIFICATION_TYPE = U
NORAD_CAT_ID   = 66401
ELEMENT_SET_NO = 999
REV_AT_EPOCH   = 469
BSTAR          = -.66348E-3
MEAN_MOTION_DOT = -.37177E-3
MEAN_MOTION_DDOT = 0

CCSDS_OMM_VERS = 2.0
CREATION_DATE  = 
ORIGINATOR     = 

OBJECT_NAME    = STARLINK-35644
OBJECT_ID      = 2025-257Y
CENTER_NAME    = EARTH
REF_FRAME      = TEME
TIME_SYSTEM    = UTC
MEAN_ELEMENT_THEORY = SGP/SGP4

EPOCH          = 2025-12-01T12:00:05.998752
MEAN_MOTION    = 15.49318207
ECCENTRICITY   = .0001459
INCLINATION    = 53.1589
RA_OF_ASC_NODE = 317.5241
ARG_OF_PERICENTER = 87.7994
MEAN_ANOMALY   = 65.5289

EPHEMERIS_TYPE = 0
CLASSIFICATION_TYPE = U
NORAD_CAT_ID   = 66402
ELEMENT_SET_NO = 999
REV_AT_EPOCH   = 469
BSTAR          = -.95786E-3
MEAN_MOTION_DOT = -.53376E-3
MEAN_MOTION_DDOT = 0

CCSDS_OMM_VERS = 2.0
CREATION_DATE  = 
ORIGINATOR     = 

OBJECT_NAME    = STARLINK-35602
OBJECT_ID      = 2025-257Z
CENTER_NAME    = EARTH
REF_FRAME      = TEME
TIME_SYSTEM    = UTC
MEAN_ELEMENT_THEORY = SGP/SGP4

EPOCH          = 2025-12-01T12:00:05.998752
MEAN_MOTION    = 15.49307150
ECCENTRICITY   = .0001644
INCLINATION    = 53.1588
RA_OF_ASC_NODE = 317.5126
ARG_OF_PERICENTER = 89.6538
MEAN_ANOMALY   = 69.4259

EPHEMERIS_TYPE = 0
CLASSIFICATION_TYPE = U
NORAD_CAT_ID   = 66403
ELEMENT_SET_NO = 999
REV_AT_EPOCH   = 469
BSTAR          = -.54749E-3
MEAN_MOTION_DOT = -.30777E-3
MEAN_MOTION_DDOT = 0

CCSDS_OMM_VERS = 2.0
CREATION_DATE  = 
ORIGINATOR     = 

OBJECT_NAME    = STARLINK-35691
OBJECT_ID      = 2025-257AA
CENTER_NAME    = EARTH
REF_FRAME      = TEME
TIME_SYSTEM    = UTC
MEAN_ELEMENT_THEORY = SGP/SGP4

EPOCH          = 2025-12-01T12:00:05.998752
MEAN_MOTION    = 15.49313444
ECCENTRICITY   = .0001519
INCLINATION    = 53.1588
RA_OF_ASC_NODE = 317.5080
ARG_OF_PERICENTER = 87.5688
MEAN_ANOMALY   = 73.4236

EPHEMERIS_TYPE = 0
CLASSIFICATION_TYPE = U
NORAD_CAT_ID   = 66404
ELEMENT_SET_NO = 999
REV_AT_EPOCH   = 469
BSTAR          = -.71971E-3
MEAN_MOTION_DOT = -.40277E-3
MEAN_MOTION_DDOT = 0

CCSDS_OMM_VERS = 2.0
CREATION_DATE  = 
ORIGINATOR     = 

OBJECT_NAME    = STARLINK-35683
OBJECT_ID      = 2025-257AB
CENTER_NAME    = EARTH
REF_FRAME      = TEME
TIME_SYSTEM    = UTC
MEAN_ELEMENT_THEORY = SGP/SGP4

EPOCH          = 2025-12-01T12:00:05.998752
MEAN_MOTION    = 15.49315268
ECCENTRICITY   = .0001467
INCLINATION    = 53.1587
RA_OF_ASC_NODE = 317.5037
ARG_OF_PERICENTER = 88.0303
MEAN_ANOMALY   = 74.8798

EPHEMERIS_TYPE = 0
CLASSIFICATION_TYPE = U
NORAD_CAT_ID   = 66405
ELEMENT_SET_NO = 999
REV_AT_EPOCH   = 453
BSTAR          = -.82689E-3
MEAN_MOTION_DOT = -.46177E-3
MEAN_MOTION_DDOT = 0

CCSDS_OMM_VERS = 2.0
CREATION_DATE  = 
ORIGINATOR     = 

OBJECT_NAME    = STARLINK-34840
OBJECT_ID      = 2025-257AC
CENTER_NAME    = EARTH
REF_FRAME      = TEME
TIME_SYSTEM    = UTC
MEAN_ELEMENT_THEORY = SGP/SGP4

EPOCH          = 2025-12-01T06:00:02.000160
MEAN_MOTION    = 15.49328208
ECCENTRICITY   = .00017363
INCLINATION    = 53.1592
RA_OF_ASC_NODE = 318.6878
ARG_OF_PERICENTER = 88.6956
MEAN_ANOMALY   = 124.5339

EPHEMERIS_TYPE = 0
CLASSIFICATION_TYPE = U
NORAD_CAT_ID   = 66406
ELEMENT_SET_NO = 999
REV_AT_EPOCH   = 459
BSTAR          = -.13624532E-2
MEAN_MOTION_DOT = -.75549E-3
MEAN_MOTION_DDOT = 0

CCSDS_OMM_VERS = 2.0
CREATION_DATE  = 
ORIGINATOR     = 

OBJECT_NAME    = STARLINK-35686
OBJECT_ID      = 2025-257AD
CENTER_NAME    = EARTH
REF_FRAME      = TEME
TIME_SYSTEM    = UTC
MEAN_ELEMENT_THEORY = SGP/SGP4

EPOCH          = 2025-12-01T12:00:05.998752
MEAN_MOTION    = 15.49303287
ECCENTRICITY   = .0001673
INCLINATION    = 53.1587
RA_OF_ASC_NODE = 317.5000
ARG_OF_PERICENTER = 87.8535
MEAN_ANOMALY   = 76.9775

EPHEMERIS_TYPE = 0
CLASSIFICATION_TYPE = U
NORAD_CAT_ID   = 66407
ELEMENT_SET_NO = 999
REV_AT_EPOCH   = 469
BSTAR          = -.40794E-3
MEAN_MOTION_DOT = -.23066E-3
MEAN_MOTION_DDOT = 0

CCSDS_OMM_VERS = 2.0
CREATION_DATE  = 
ORIGINATOR     = 

OBJECT_NAME    = STARLINK-35679
OBJECT_ID      = 2025-257AE
CENTER_NAME    = EARTH
REF_FRAME      = TEME
TIME_SYSTEM    = UTC
MEAN_ELEMENT_THEORY = SGP/SGP4

EPOCH          = 2025-12-01T12:00:05.998752
MEAN_MOTION    = 15.49312795
ECCENTRICITY   = .0001414
INCLINATION    = 53.1588
RA_OF_ASC_NODE = 317.4972
ARG_OF_PERICENTER = 88.5796
MEAN_ANOMALY   = 78.1665

EPHEMERIS_TYPE = 0
CLASSIFICATION_TYPE = U
NORAD_CAT_ID   = 66408
ELEMENT_SET_NO = 999
REV_AT_EPOCH   = 469
BSTAR          = -.71363E-3
MEAN_MOTION_DOT = -.39941E-3
MEAN_MOTION_DDOT = 0

